From:	Horizons Ephemeris System <horizons@ssd.jpl.nasa.gov>
Sent:	Friday, December 4, 2020 12:40 PM
Subject:	[Horizons] MAJOR BODY #C(usr={-90.,20.,.600^G}@301)_T(301) (1/1)

 Automated mail xmit by MAIL_REQUEST, PID= 7451 Fri Dec  4 10:39:51 2020
++++++++++++++++++++++++++++++++ (part 1 of 1)  +++++++++++++++++++++++++++++++
*******************************************************************************
 Revised: July 31, 2013             Moon / (Earth)                          301
 
 GEOPHYSICAL DATA (updated 2018-Aug-15):
  Vol. mean radius, km  = 1737.53+-0.03    Mass, x10^22 kg       =    7.349
  Radius (gravity), km  = 1738.0           Surface emissivity    =    0.92
  Radius (IAU), km      = 1737.4           GM, km^3/s^2          = 4902.800066
  Density, g/cm^3       =    3.3437        GM 1-sigma, km^3/s^2  =  +-0.0001  
  V(1,0)                =   +0.21          Surface accel., m/s^2 =    1.62
  Earth/Moon mass ratio = 81.3005690769    Farside crust. thick. = ~80 - 90 km
  Mean crustal density  = 2.97+-.07 g/cm^3 Nearside crust. thick.= 58+-8 km 
  Heat flow, Apollo 15  = 3.1+-.6 mW/m^2   Mean angular diameter = 31'05.2"
  Heat flow, Apollo 17  = 2.2+-.5 mW/m^2   Sid. rot. rate, rad/s = 0.0000026617
  Geometric Albedo      = 0.12             Mean solar day        = 29.5306 d
  Obliquity to orbit    = 6.67 deg         Orbit period          = 27.321582 d
  Semi-major axis, a    = 384400 km        Eccentricity          = 0.05490
  Mean motion, rad/s    = 2.6616995x10^-6  Inclination           = 5.145 deg
  Apsidal period        = 3231.50 d        Nodal period          = 6798.38 d
                                 Perihelion  Aphelion    Mean
  Solar Constant (W/m^2)         1414+-7     1323+-7     1368+-7
  Maximum Planetary IR (W/m^2)   1314        1226        1268
  Minimum Planetary IR (W/m^2)      5.2         5.2         5.2
********************************************************************************
 
 
*******************************************************************************
Ephemeris / MAIL_REQUEST Fri Dec  4 10:39:50 2020 Pasadena, USA  / Horizons
*******************************************************************************
Target body name: Moon (301)                      {source: DE431mx}
Center body name: Moon (301)                      {source: DE431mx}
Center-site name: (user defined site below)
*******************************************************************************
Start time      : A.D. 2020-Jan-01 00:00:00.0000 TDB
Stop  time      : A.D. 2039-Jan-01 00:00:00.0000 TDB
Step-size       : 10000 steps
*******************************************************************************
Center geodetic : 270.000000,20.0000000,0.6000000 {E-lon(deg),Lat(deg),Alt(km)}
Center cylindric: 270.000000,1633.18577,594.43101 {E-lon(deg),Dxy(km),Dz(km)}
Center pole/equ : IAU_MOON                        {East-longitude positive}
Center radii    : 1737.4 x 1737.4 x 1737.4 km     {Equator, meridian, pole}    
Output units    : KM-S
Output type     : GEOMETRIC cartesian states
Output format   : 3 (position, velocity, LT, range, range-rate)
Reference frame : Ecliptic of J2000.0
*******************************************************************************
JDTDB
   X     Y     Z
   VX    VY    VZ
   LT    RG    RR
*******************************************************************************
$$SOE
2459832.204000000 = A.D. 2022-Sep-09 16:53:45.6000 TDB 
  -7.186294508449832E+02 -1.472131246114908E+03 -5.805560322573589E+02
   3.887478632992160E-03 -1.941893036669010E-03  1.120732144348928E-04
   5.797343974543885E-03  1.738000000000000E+03  4.391705002472929E-19
2459832.898000001 = A.D. 2022-Sep-10 09:33:07.2000 TDB 
  -4.772401026836181E+02 -1.569512237206579E+03 -5.740359062369955E+02
   4.146891583644100E-03 -1.299321759558106E-03  1.049384469587879E-04
   5.797343974543883E-03  1.738000000000000E+03 -5.150272230172798E-19
2459833.592000000 = A.D. 2022-Sep-11 02:12:28.8000 TDB 
  -2.234290886785408E+02 -1.627289404578013E+03 -5.680252072579285E+02
   4.300919190431258E-03 -6.237241763841010E-04  9.511776540993964E-05
   5.797343974543884E-03  1.738000000000000E+03 -9.182655914261580E-20
2459834.286000000 = A.D. 2022-Sep-11 18:51:50.4000 TDB 
   3.635336936377658E+01 -1.643993959495300E+03 -5.626777885067688E+02
   4.345643604738494E-03  6.773388952726899E-05  8.286213318313503E-05
   5.797343974543883E-03  1.738000000000000E+03  3.193967274525767E-20
2459834.980000000 = A.D. 2022-Sep-12 11:31:12.0000 TDB 
   2.955050467575873E+02 -1.619200739496909E+03 -5.581305694489955E+02
   4.279923508099869E-03  7.574822724101598E-04  6.848422722187310E-05
   5.797343974543884E-03  1.738000000000000E+03  2.036154137510176E-19
2459835.674000001 = A.D. 2022-Sep-13 04:10:33.6000 TDB 
   5.474394416927652E+02 -1.553539101507241E+03 -5.545000611065702E+02
   4.105423631675600E-03  1.427992614136342E-03  5.235068514599999E-05
   5.797343974543884E-03  1.738000000000000E+03 -5.050460752843868E-19
2459836.368000000 = A.D. 2022-Sep-13 20:49:55.2000 TDB 
   7.857531349451665E+02 -1.448677032412337E+03 -5.518793950536933E+02
   3.826573041411139E-03  2.062223643777551E-03  3.487308118356339E-05
   5.797343974543884E-03  1.738000000000000E+03  4.790950911788649E-19
2459837.062000000 = A.D. 2022-Sep-14 13:29:16.8000 TDB 
   1.004388532887762E+03 -1.307278869058097E+03 -5.503359278820076E+02
   3.450453180432808E-03  2.644054277498807E-03  1.649778183826240E-05
   5.797343974543883E-03  1.738000000000000E+03  5.140291082439906E-19
2459837.756000001 = A.D. 2022-Sep-15 06:08:38.4000 TDB 
   1.197787856552570E+03 -1.132937690606888E+03 -5.499094833675204E+02
   2.986618451702618E-03  3.158693515872275E-03 -2.305149557139214E-06
   5.797343974543884E-03  1.738000000000000E+03 -2.233281805234813E-19
2459838.450000000 = A.D. 2022-Sep-15 22:48:00.0000 TDB 
   1.361034458570044E+03 -9.300840914073800E+02 -5.506112834803305E+02
   2.446853851590161E-03  3.593056687647134E-03 -2.105379594326555E-05
   5.797343974543884E-03  1.738000000000000E+03  5.090385343775440E-20
2459839.144000000 = A.D. 2022-Sep-16 15:27:21.6000 TDB 
   1.489977869440756E+03 -7.038736451550252E+02 -5.524236057890392E+02
   1.844875781619917E-03  3.936098434294003E-03 -3.926672562015255E-05
   5.797343974543885E-03  1.738000000000000E+03  1.397360682605023E-20
2459839.838000000 = A.D. 2022-Sep-17 08:06:43.2000 TDB 
   1.581339386667338E+03 -4.600559154006245E+02 -5.553001880779983E+02
   1.195983626765569E-03  4.179093926625604E-03 -5.647552048169643E-05
   5.797343974543885E-03  1.738000000000000E+03 -3.074193501731051E-19
2459840.532000001 = A.D. 2022-Sep-18 00:46:04.8000 TDB 
   1.632795514296216E+03 -2.048283391337622E+02 -5.591673810066712E+02
   5.166709541601632E-04  4.315861124182067E-03 -7.223713515907269E-05
   5.797343974543884E-03  1.738000000000000E+03 -2.994344319867906E-19
2459841.226000000 = A.D. 2022-Sep-18 17:25:26.4000 TDB 
   1.643037123594746E+03  5.532130306226637E+01 -5.639260269902409E+02
  -1.757937779718565E-04  4.342918393503093E-03 -8.614569350936900E-05
   5.797343974543884E-03  1.738000000000000E+03  3.633137774773059E-19
2459841.920000000 = A.D. 2022-Sep-19 10:04:48.0000 TDB 
   1.611802823310510E+03  3.137798248271686E+02 -5.694540194780441E+02
  -8.638063313443258E-04  4.259573451420047E-03 -9.784332066056626E-05
   5.797343974543885E-03  1.738000000000000E+03  1.916380364715459E-19
2459842.614000001 = A.D. 2022-Sep-20 02:44:09.6000 TDB 
   1.539885684307548E+03  5.639767845463779E+02 -5.756094733040840E+02
  -1.529874443007452E-03  4.067941349683276E-03 -1.070296343524345E-04
   5.797343974543885E-03  1.738000000000000E+03  6.427859139983104E-19
2459843.308000000 = A.D. 2022-Sep-20 19:23:31.2000 TDB 
   1.429113141542897E+03  7.995515703670313E+02 -5.822344158438300E+02
  -2.157062828506046E-03  3.772891022099828E-03 -1.134695785929153E-04
   5.797343974543885E-03  1.738000000000000E+03 -5.110347639241226E-19
2459844.002000000 = A.D. 2022-Sep-21 12:02:52.8000 TDB 
   1.282300579148500E+03  1.014515167206204E+03 -5.891588921708562E+02
  -2.729424102712950E-03  3.381921729997975E-03 -1.169993683868735E-04
   5.797343974543886E-03  1.738000000000001E+03  5.509593548556945E-19
2459844.696000000 = A.D. 2022-Sep-22 04:42:14.4000 TDB 
   1.103179774618383E+03  1.203402487053692E+03 -5.962053664853438E+02
  -3.232404639641359E-03  2.904972522693813E-03 -1.175304134138854E-04
   5.797343974543886E-03  1.738000000000000E+03  5.589442730420090E-20
2459845.390000001 = A.D. 2022-Sep-22 21:21:36.0000 TDB 
   8.963040189545629E+02  1.361411382322401E+03 -6.031932971186835E+02
  -3.653215019885343E-03  2.354169534749227E-03 -1.150511854751648E-04
   5.797343974543884E-03  1.738000000000000E+03  2.395475455894325E-20
2459846.084000000 = A.D. 2022-Sep-23 14:00:57.6000 TDB 
   6.669323248798337E+02  1.484524799455778E+03 -6.099437628430691E+02
  -3.981155604360804E-03  1.743517530305627E-03 -1.096270754347210E-04
   5.797343974543884E-03  1.738000000000000E+03 -5.669291912283236E-19
2459846.778000000 = A.D. 2022-Sep-24 06:40:19.2000 TDB 
   4.208956697355376E+02  1.569612958173944E+03 -6.162840227770922E+02
  -4.207888906349918E-03  1.088543537184843E-03 -1.013983416728291E-04
   5.797343974543885E-03  1.738000000000001E+03  3.673062365704630E-19
2459847.472000001 = A.D. 2022-Sep-24 23:19:40.8000 TDB 
   1.644486795339495E+02  1.614512950194359E+03 -6.220518993253289E+02
  -4.327651785458217E-03  4.059016516787367E-04 -9.057628233568873E-05
   5.797343974543884E-03  1.738000000000000E+03 -1.197737727947162E-19
2459848.166000000 = A.D. 2022-Sep-25 15:59:02.4000 TDB 
  -9.588946632332153E+01  1.618083727247036E+03 -6.270998818900922E+02
  -4.337402024856319E-03 -2.870508960715363E-04 -7.743777320688063E-05
   5.797343974543883E-03  1.738000000000000E+03  7.984918186314417E-20
